{
  "type": "FeatureCollection",

  "features": [
    {
      "type": "Feature",

      "properties": {
        "animal_id": "lion",
        "range_type": "current"
      },

      "geometry": {
        "type": "MultiPolygon",

        "coordinates": [
          [
            [
              [30.0, -5.0],
              [40.0, -5.0],
              [45.0, -15.0],
              [40.0, -25.0],
              [30.0, -25.0],
              [25.0, -15.0],
              [30.0, -5.0]
            ]
          ]
        ]
      }
    }
  ]
}
